[{"OBJECT_NAME":"DAMPE","OBJECT_ID":"2015-078A","EPOCH":"2026-03-09T23:55:00.527232","MEAN_MOTION":15.30502084,"ECCENTRICITY":0.00138005,"INCLINATION":97.4588,"RA_OF_ASC_NODE":73.9866,"ARG_OF_PERICENTER":70.6942,"MEAN_ANOMALY":289.579,"EPHEMERIS_TYPE":0,"CLASSIFICATION_TYPE":"U","NORAD_CAT_ID":41173,"ELEMENT_SET_NO":999,"REV_AT_EPOCH":56937,"BSTAR":9.1158173e-5,"MEAN_MOTION_DOT":2.617e-5,"MEAN_MOTION_DDOT":0},{"OBJECT_NAME":"STARLINK-34884","OBJECT_ID":"2025-247Y","EPOCH":"2026-03-09T14:48:10.643040","MEAN_MOTION":15.30195971,"ECCENTRICITY":9.19e-5,"INCLINATION":53.1585,"RA_OF_ASC_NODE":191.6952,"ARG_OF_PERICENTER":91.0199,"MEAN_ANOMALY":269.0907,"EPHEMERIS_TYPE":0,"CLASSIFICATION_TYPE":"U","NORAD_CAT_ID":66287,"ELEMENT_SET_NO":999,"REV_AT_EPOCH":2102,"BSTAR":0.0010523,"MEAN_MOTION_DOT":0.00030933,"MEAN_MOTION_DDOT":0}]
